1 25984U 99065E   19282.64401552  .00000013  00000-0  55847-4 0  9993
2 25984  45.0372 153.9438 0004281  16.8499 343.2490 14.32776486 36761
1 25984U 99065E   19282.92292539 +.00000004 +00000-0 +52557-4 0  9992
2 25984 045.0372 152.6334 0004253 018.5999 341.5002 14.32776479036330
1 25984U 99065E   19283.82938208 -.00000007 +00000-0 +48541-4 0  9994
2 25984 045.0371 148.3747 0004187 023.6442 336.4596 14.32776557036467
